{
  "retailers": [
    {
      "retailerId": 100,
      "retailerName": "Diamond Pharmacy",
      "address": "656 New Haven Ave,Newyork",
      "longitude": -75.017933,
      "latitude": 42.599428,
      "zipcode": 10001
    },
    {
      "retailerId": 101,
      "retailerName": "Acculife Drug Stores",
      "address": "1717 South College Street,West Virginia",
      "longitude": -81.054903,
      "latitude": 38.597626,
      "zipcode": 10002
    },
    {
      "retailerId": 102,
      "retailerName": "ACME Pharmacy",
      "address": "9248 Parkway East,Arkansas",
      "longitude": -91.831833,
      "latitude": 35.20105,
      "zipcode": 10003
    },
    {
      "retailerId": 103,
      "retailerName": "Atlas Drugs",
      "address": "1300 Montgomery Highway,New Mexico",
      "longitude": -105.032363,
      "latitude": 34.97273,
      "zipcode": 10004
    },
    {
      "retailerId": 104,
      "retailerName": "Bartell Drugs",
      "address": "1607 23rd Street NW,California",
      "longitude": -119.417932,
      "latitude": 36.778261,
      "zipcode": 10005
    },
    {
      "retailerId": 105,
      "retailerName": "Be Well Pharmacy",
      "address": "664 Dickens Road, Lilburn,Kentucky",
      "longitude": -84.270018,
      "latitude": 37.839333,
      "zipcode": 10006
    },
    {
      "retailerId": 106,
      "retailerName": "Better You Pharmacy",
      "address": "9520 Faires Farm Road,Washington",
      "longitude": -120.740139,
      "latitude": 47.751074,
      "zipcode": 10007
    },
    {
      "retailerId": 107,
      "retailerName": "Betterlife Pharmacy",
      "address": "526 Superior Avenue,Texas",
      "longitude": -99.901813,
      "latitude": 31.968599,
      "zipcode": 10008
    },
    {
      "retailerId": 108,
      "retailerName": "Beyond Health Drug Store",
      "address": "Suite 1255, Cleveland,Nebraska",
      "longitude": -99.901813,
      "latitude": 41.492537,
      "zipcode": 10009
    },
    {
      "retailerId": 109,
      "retailerName": "Bigwish Pharmacy",
      "address": "2312 Dorrington Dr,Indiana",
      "longitude": -85.602364,
      "latitude": 40.551217,
      "zipcode": 10010
    },
    {
      "retailerId": 110,
      "retailerName": "BJ`S Wholesale Club",
      "address": "2026 Scott Street, Hollywood,West Virginia",
      "longitude": -80.954903,
      "latitude": 39.597626,
      "zipcode": 10002
    },
    {
      "retailerId": 111,
      "retailerName": "Brennen Drugs Co",
      "address": "318 Canino Road,Arkansas",
      "longitude": -91.331833,
      "latitude": 34.30105,
      "zipcode": 10003
    },
    {
      "retailerId": 112,
      "retailerName": "Brett Pharma",
      "address": "77 Massachusetts Avenue,New Mexico",
      "longitude": -105.532363,
      "latitude": 34.97273,
      "zipcode": 10004
    },
    {
      "retailerId": 113,
      "retailerName": "Brightwell Pharmacy",
      "address": "1907 Spruce Street, Philadelphia,California",
      "longitude": -119.217932,
      "latitude": 36.978261,
      "zipcode": 10005
    },
    {
      "retailerId": 114,
      "retailerName": "Buehler Pharmacy",
      "address": "737,Michigan Avenue,Kentucky",
      "longitude": -84.470018,
      "latitude": 37.239333,
      "zipcode": 10006
    },
    {
      "retailerId": 115,
      "retailerName": "Centrico Pharmacy",
      "address": "7280 N. Caldwell Avenue,Washington",
      "longitude": -120.540139,
      "latitude": 47.451074,
      "zipcode": 10007
    },
    {
      "retailerId": 116,
      "retailerName": "CVS Pharmacy",
      "address": "777 Woodward Avenue,Texas",
      "longitude": -99.701813,
      "latitude": 30.968599,
      "zipcode": 10008
    },
    {
      "retailerId": 117,
      "retailerName": "Dahls Pharmacy",
      "address": "1250 East Moore Lake Drive,Nebraska",
      "longitude": -99.401813,
      "latitude": 41.092537,
      "zipcode": 10009
    },
    {
      "retailerId": 118,
      "retailerName": "Dakota Pharmacy",
      "address": "4761 Industrial Pkwy,Indiana",
      "longitude": -85.302364,
      "latitude": 40.051217,
      "zipcode": 10010
    },
    {
      "retailerId": 119,
      "retailerName": "Discount Drug Mart",
      "address": "11766 Wilshire Blvd,Newyork",
      "longitude": -75.117933,
      "latitude": 42.899428,
      "zipcode": 10001
    },
    {
      "retailerId": 120,
      "retailerName": "Discount Emporium",
      "address": "26050 Kay Ave,Arkansas",
      "longitude": -91.331833,
      "latitude": 35.00105,
      "zipcode": 10003
    },
    {
      "retailerId": 121,
      "retailerName": "Drug Blend",
      "address": "1350,Red Rock Street,New Mexico",
      "longitude": -105.032363,
      "latitude": 34.27273,
      "zipcode": 10004
    },
    {
      "retailerId": 122,
      "retailerName": "Essential Pharmacy",
      "address": "5306,Walnut Ave,California",
      "longitude": -119.717932,
      "latitude": 36.078261,
      "zipcode": 10005
    },
    {
      "retailerId": 123,
      "retailerName": "Essura Pharmacy",
      "address": "Monroe, Suite C145,Kentucky",
      "longitude": -84.870018,
      "latitude": 37.039333,
      "zipcode": 10006
    },
    {
      "retailerId": 124,
      "retailerName": "Everyday Drugs",
      "address": "1151 SW Vermont,Washington",
      "longitude": -121.040139,
      "latitude": 47.851074,
      "zipcode": 10007
    },
    {
      "retailerId": 125,
      "retailerName": "Family Fare Pharmacy",
      "address": "1265 East Fort Union Blvd,Texas",
      "longitude": -100.201813,
      "latitude": 32.168599,
      "zipcode": 10008
    },
    {
      "retailerId": 126,
      "retailerName": "Family Pharmacy",
      "address": "72 Main St, North Reading,Nebraska",
      "longitude": -99.701813,
      "latitude": 41.792537,
      "zipcode": 10009
    },
    {
      "retailerId": 127,
      "retailerName": "Florrax Pharmacy",
      "address": "200 Otis Street, Northborough,Indiana",
      "longitude": -85.902364,
      "latitude": 40.851217,
      "zipcode": 10010
    },
    {
      "retailerId": 128,
      "retailerName": "Forward Drugs",
      "address": "180 North King Street, Northhampton,Newyork",
      "longitude": -75.217933,
      "latitude": 42.94280,
      "zipcode": 10001
    },
    {
      "retailerId": 129,
      "retailerName": "Fruth Pharmacy",
      "address": "555 East Main St, Orange MA 1364,West Virginia",
      "longitude": -80.054903,
      "latitude": 39.597626,
      "zipcode": 10002
    },
    {
      "retailerId": 130,
      "retailerName": "Genovese Drug Store",
      "address": "555 Hubbard Ave-Suite 12,New Mexico",
      "longitude": -104.832363,
      "latitude": 33.97273,
      "zipcode": 10004
    },
    {
      "retailerId": 131,
      "retailerName": "Giant Eagle, Inc.",
      "address": "300 Colony Place,California",
      "longitude": -119.017932,
      "latitude": 36.078261,
      "zipcode": 10005
    },
    {
      "retailerId": 132,
      "retailerName": "Good Neighbor Pharmacy",
      "address": "301 Falls Blvd,Kentucky",
      "longitude": -85.070018,
      "latitude": 37.039333,
      "zipcode": 10006
    },
    {
      "retailerId": 133,
      "retailerName": "Goodness Pharmacy",
      "address": "36 Paramount Drive,New York",
      "longitude": -75.617933,
      "latitude": 42.999428,
      "zipcode": 10001
    },
    {
      "retailerId": 134,
      "retailerName": "Goodstart Pharmacy",
      "address": "450 Highland Ave,Washington",
      "longitude": -120.140139,
      "latitude": 47.251074,
      "zipcode": 10007
    },
    {
      "retailerId": 135,
      "retailerName": "Great Pharmacy",
      "address": "1180 Fall River Avenue,Texas",
      "longitude": -99.801813,
      "latitude": 31.968599,
      "zipcode": 10008
    },
    {
      "retailerId": 136,
      "retailerName": "Heallergy Pharmacy",
      "address": "1105 Boston Road,Nebraska",
      "longitude": -99.001813,
      "latitude": 41.392537,
      "zipcode": 10009
    },
    {
      "retailerId": 137,
      "retailerName": "Health Aura Drugs",
      "address": "100 Charlton Road,Indiana",
      "longitude": -85.102364,
      "latitude": 40.051217,
      "zipcode": 10010
    },
    {
      "retailerId": 138,
      "retailerName": "Health Corner",
      "address": "262 Swansea Mall Dr,West Virginia",
      "longitude": -79.954903,
      "latitude": 39.097626,
      "zipcode": 10002
    },
    {
      "retailerId": 139,
      "retailerName": "Health Element",
      "address": "333 Main Street,Arkansas",
      "longitude": -92.031833,
      "latitude": 35.70105,
      "zipcode": 10003
    },
    {
      "retailerId": 140,
      "retailerName": "Health Harvest",
      "address": "550 Providence Hwy,Newyork",
      "longitude": -75.017933,
      "latitude": 43.099428,
      "zipcode": 10001
    },
    {
      "retailerId": 141,
      "retailerName": "Health Hexa Drugs",
      "address": "352 Palmer Road,West Virginia",
      "longitude": -79.454903,
      "latitude": 38.597626,
      "zipcode": 10002
    },
    {
      "retailerId": 142,
      "retailerName": "Health Hub",
      "address": "3005 Cranberry Hwy,Arkansas",
      "longitude": -90.931833,
      "latitude": 35.60105,
      "zipcode": 10003
    },
    {
      "retailerId": 143,
      "retailerName": "Health Mart",
      "address": "141 Washington Ave Extension,New Mexico",
      "longitude": -105.432363,
      "latitude": 34.37273,
      "zipcode": 10004
    },
    {
      "retailerId": 144,
      "retailerName": "Healthbest Pharmacy",
      "address": "13858 Rt 31 W,California",
      "longitude": -119.317932,
      "latitude": 35.878261,
      "zipcode": 10005
    },
    {
      "retailerId": 145,
      "retailerName": "Healthlink Pharmacy",
      "address": "2055 Niagara Falls Blvd,Kentucky",
      "longitude": -83.870018,
      "latitude": 37.639333,
      "zipcode": 10006
    },
    {
      "retailerId": 146,
      "retailerName": "Healthy Floyyds Pharmacy",
      "address": "101 Sanford Farm Shpg Center,Washington",
      "longitude": -120.440139,
      "latitude": 47.151074,
      "zipcode": 10007
    },
    {
      "retailerId": 147,
      "retailerName": "Heartland Pharmacy",
      "address": "297 Grant Avenue,Texas",
      "longitude": -99.70181,
      "latitude": 31.16859,
      "zipcode": 10008
    },
    {
      "retailerId": 148,
      "retailerName": "Hearty Mart",
      "address": "4133 Veterans Memorial Drive,Nebraska",
      "longitude": -100.101813,
      "latitude": 41.992537,
      "zipcode": 10009
    },
    {
      "retailerId": 149,
      "retailerName": "IDL Drug Stores",
      "address": "6265 Brockport Spencerport Rd,Indiana",
      "longitude": -86.002364,
      "latitude": 40.951217,
      "zipcode": 10010
    },
    {
      "retailerId": 150,
      "retailerName": "IHC Pharmacy",
      "address": "5399 W Genesse St,Newyork",
      "longitude": -75.917933,
      "latitude": 42.499428,
      "zipcode": 10001
    },
    {
      "retailerId": 151,
      "retailerName": "Ingles Markets",
      "address": "3191 County rd 10,West Virginia",
      "longitude": -80.454903,
      "latitude": 37.797626,
      "zipcode": 10002
    },
    {
      "retailerId": 152,
      "retailerName": "Innovia Drug Stores",
      "address": "161 Centereach Mall,Arkansas",
      "longitude": -91.631833,
      "latitude": 34.90105,
      "zipcode": 10003
    },
    {
      "retailerId": 153,
      "retailerName": "Kerr Drugs",
      "address": "3018 East Ave,New Mexico",
      "longitude": -105.932363,
      "latitude": 34.37273,
      "zipcode": 10004
    },
    {
      "retailerId": 154,
      "retailerName": "Keystone Pharmacy",
      "address": "100 Thruway Plaza,California",
      "longitude": -119.817932,
      "latitude": 36.378261,
      "zipcode": 10005
    },
    {
      "retailerId": 155,
      "retailerName": "Knight Drugs",
      "address": "8064 Brewerton Rd,Kentucky",
      "longitude": -84.470018,
      "latitude": 37.539333,
      "zipcode": 10006
    },
    {
      "retailerId": 156,
      "retailerName": "Lifecheck Pharmacy",
      "address": "5033 Transit Road,Washington",
      "longitude": -121.140139,
      "latitude": 47.251074,
      "zipcode": 10007
    },
    {
      "retailerId": 157,
      "retailerName": "Lifesave Pharmacy",
      "address": "3949 Route 31,Texas",
      "longitude": -99.601813,
      "latitude": 31.568599,
      "zipcode": 10008
    },
    {
      "retailerId": 158,
      "retailerName": "Lifezest Pharmacy",
      "address": "139 Merchant Place,Nebraska",
      "longitude": -99.601813,
      "latitude": 40.992537,
      "zipcode": 10009
    },
    {
      "retailerId": 159,
      "retailerName": "Louis And Clark Drug",
      "address": "85 Crooked Hill Road,Indiana",
      "longitude": -85.802364,
      "latitude": 41.051217,
      "zipcode": 10010
    },
    {
      "retailerId": 160,
      "retailerName": "Lyfe Pharmacy",
      "address": "872 Route 13,Newyork",
      "longitude": -75.617933,
      "latitude": 42.69428,
      "zipcode": 10001
    },
    {
      "retailerId": 161,
      "retailerName": "Marsh Drug Store",
      "address": "279 Troy Road,West Virginia",
      "longitude": -79.454903,
      "latitude": 37.597626,
      "zipcode": 10002
    },
    {
      "retailerId": 162,
      "retailerName": "Marxs Pharmacy",
      "address": "2465 Hempstead Turnpike,Arkansas",
      "longitude": -92.331833,
      "latitude": 35.40105,
      "zipcode": 10003
    },
    {
      "retailerId": 163,
      "retailerName": "Max Health Pharmacy",
      "address": "6438 Basile Rowe,New Mexico",
      "longitude": -106.232363,
      "latitude": 34.87273,
      "zipcode": 10004
    },
    {
      "retailerId": 164,
      "retailerName": "Mediserv Pharmacy",
      "address": "25737 US Rt 11,California",
      "longitude": -119.917932,
      "latitude": 36.878261,
      "zipcode": 10005
    },
    {
      "retailerId": 165,
      "retailerName": "Med-X Drugs",
      "address": "901 Route 110,Kentucky",
      "longitude": -84.770018,
      "latitude": 37.339333,
      "zipcode": 10006
    },
    {
      "retailerId": 166,
      "retailerName": "Moore King Pharmacy",
      "address": "2400 Route 9,Washington",
      "longitude": -120.340139,
      "latitude": 47.151074,
      "zipcode": 10007
    },
    {
      "retailerId": 167,
      "retailerName": "Neighborcare Pharmacy",
      "address": "10401 Bennett Road,Texas",
      "longitude": -99.201813,
      "latitude": 30.968599,
      "zipcode": 10008
    },
    {
      "retailerId": 168,
      "retailerName": "Newday Drug Store",
      "address": "1818 State Route 3,Nebraska",
      "longitude": -100.201813,
      "latitude": 41.792537,
      "zipcode": 10009
    },
    {
      "retailerId": 169,
      "retailerName": "Pharma Best",
      "address": "4300 Lakeville Road,Indiana",
      "longitude": -85.202364,
      "latitude": 40.151217,
      "zipcode": 10010
    },
    {
      "retailerId": 170,
      "retailerName": "Pharma First",
      "address": "990 Route 5 20,Newyork",
      "longitude": -75.07933,
      "latitude": 43.299428,
      "zipcode": 10001
    },
    {
      "retailerId": 171,
      "retailerName": "Pharma Street",
      "address": "311 RT 9W,West Virginia",
      "longitude": -79.454903,
      "latitude": 39.797626,
      "zipcode": 10002
    },
    {
      "retailerId": 172,
      "retailerName": "Planet Health",
      "address": "200 Dutch Meadows Ln,Arkansas",
      "longitude": -91.731833,
      "latitude": 35.90105,
      "zipcode": 10003
    },
    {
      "retailerId": 173,
      "retailerName": "Protowell Pharmacy",
      "address": "1549 Rt 9,New Mexico",
      "longitude": -105.132363,
      "latitude": 34.07273,
      "zipcode": 10004
    },
    {
      "retailerId": 174,
      "retailerName": "Randalls Food & Drug",
      "address": "5360 Southwestern Blvd,California",
      "longitude": -120.11793,
      "latitude": 35.97826,
      "zipcode": 10005
    },
    {
      "retailerId": 175,
      "retailerName": "Rejuvva Drugs",
      "address": "103 North Caroline St,Kentucky",
      "longitude": -84.970018,
      "latitude": 37.239333,
      "zipcode": 10006
    },
    {
      "retailerId": 176,
      "retailerName": "Revco Discount Drugs",
      "address": "1000 State Route 36,Washington",
      "longitude": -120.940139,
      "latitude": 46.951074,
      "zipcode": 10007
    },
    {
      "retailerId": 177,
      "retailerName": "Right Drugs",
      "address": "1400 County Rd 64,Texas",
      "longitude": -99.401813,
      "latitude": 32.268599,
      "zipcode": 10008
    },
    {
      "retailerId": 178,
      "retailerName": "Robust Pharmacy",
      "address": "135 Fairgrounds Memorial Pkwy,Nebraska",
      "longitude": -99.501813,
      "latitude": 41.192537,
      "zipcode": 10009
    },
    {
      "retailerId": 179,
      "retailerName": "Rxtra Pharmacy",
      "address": "2 Gannett Dr, Johnson City,Indiana",
      "longitude": -85.302364,
      "latitude": 40.751217,
      "zipcode": 10010
    },
    {
      "retailerId": 180,
      "retailerName": "Schnucks Pharmacy",
      "address": "233 5th Ave Ext,Newyork",
      "longitude": -75.817933,
      "latitude": 42.569428,
      "zipcode": 10001
    },
    {
      "retailerId": 181,
      "retailerName": "Shoppevita Pharmacy",
      "address": "601 Frank Stottile Blvd,West Virginia",
      "longitude": -81.454903,
      "latitude": 39.597626,
      "zipcode": 10002
    },
    {
      "retailerId": 182,
      "retailerName": "Shoprite Pharmacy",
      "address": "350 E Fairmount Ave,Arkansas",
      "longitude": -92.031833,
      "latitude": 34.80105,
      "zipcode": 10003
    },
    {
      "retailerId": 183,
      "retailerName": "Smart Pharmacy",
      "address": "4975 Transit Rd,New Mexico",
      "longitude": -105.832363,
      "latitude": 34.47273,
      "zipcode": 10004
    },
    {
      "retailerId": 184,
      "retailerName": "Stayiess Pharmacy",
      "address": "579 Troy-Schenectady Road,California",
      "longitude": -119.717932,
      "latitude": 36.578261,
      "zipcode": 10005
    },
    {
      "retailerId": 185,
      "retailerName": "Syngex Drugs",
      "address": "5783 So Transit Road,Kentucky",
      "longitude": -84.570018,
      "latitude": 36.939333,
      "zipcode": 10006
    },
    {
      "retailerId": 186,
      "retailerName": "The Pharmacy Coop.",
      "address": "7155 State Rt 12 S,Washington",
      "longitude": -120.340139,
      "latitude": 47.951074,
      "zipcode": 10007
    },
    {
      "retailerId": 187,
      "retailerName": "Virgo Pharmacy",
      "address": "425 Route 31,Texas",
      "longitude": -99.101813,
      "latitude": 31.568599,
      "zipcode": 10008
    },
    {
      "retailerId": 188,
      "retailerName": "Vista Pharmacy",
      "address": "3222 State Rt 11,Nebraska",
      "longitude": -99.301813,
      "latitude": 41.692537,
      "zipcode": 10009
    },
    {
      "retailerId": 189,
      "retailerName": "Vitasource Pharmacy",
      "address": "200 Sunrise Mall,Indiana",
      "longitude": -85.102364,
      "latitude": 39.951217,
      "zipcode": 10010
    },
    {
      "retailerId": 190,
      "retailerName": "Wellcare Pharmacy",
      "address": "43 Stephenville St,Newyork",
      "longitude": -74.917933,
      "latitude": 43.099428,
      "zipcode": 10001
    },
    {
      "retailerId": 191,
      "retailerName": "Wellfresh Pharmacy",
      "address": "750 Middle Country Road,West Virginia",
      "longitude": -80.954903,
      "latitude": 37.997626,
      "zipcode": 10002
    },
    {
      "retailerId": 192,
      "retailerName": "Wellness Craft Pharmacy",
      "address": "470 Route 211 East,Arkansas",
      "longitude": -91.531833,
      "latitude": 35.00105,
      "zipcode": 10003
    },
    {
      "retailerId": 193,
      "retailerName": "Wellocity Pharmacy",
      "address": "3133 E Main St,New Mexico",
      "longitude": -105.232363,
      "latitude": 34.27273,
      "zipcode": 10004
    },
    {
      "retailerId": 194,
      "retailerName": "Wellpharma Pharmacy",
      "address": "288 Larkin,California",
      "longitude": -119.217932,
      "latitude": 36.178261,
      "zipcode": 10005
    },
    {
      "retailerId": 195,
      "retailerName": "Wellport Drugs",
      "address": "41 Anawana Lake Road,Kentucky",
      "longitude": -84.07001,
      "latitude": 37.33933,
      "zipcode": 10006
    },
    {
      "retailerId": 196,
      "retailerName": "Welltrack Pharmacy",
      "address": "4765 Commercial Drive,Washington",
      "longitude": -120.140139,
      "latitude": 47.451074,
      "zipcode": 10007
    },
    {
      "retailerId": 197,
      "retailerName": "Wellwise Pharmacy",
      "address": "1201 Rt 300,Texas",
      "longitude": -99.201813,
      "latitude": 31.168599,
      "zipcode": 10008
    },
    {
      "retailerId": 198,
      "retailerName": "White Pigeon Pharmacy",
      "address": "255 W Main St,Nebraska",
      "longitude": -99.101813,
      "latitude": 40.92537,
      "zipcode": 10009
    },
    {
      "retailerId": 199,
      "retailerName": "Zenrx Pharmacy",
      "address": "120 Commercial Parkway,Indiana",
      "longitude": -85.302364,
      "latitude": 40.41217,
      "zipcode": 10010
    }
  ]
}
